SES-12
1 43488U 18049A   26119.19886247  .00000000  00000+0  00000+0 0  9991
2 43488   0.0150  49.6772 0001095 271.8124  62.2674  1.00269804 28928
